STARLINK-3781           
1 52272U 22041M   25165.47738502 -.00001327  00000+0 -65320-4 0  9996
2 52272  53.2168 233.2112 0001262  88.8589 271.2548 15.08837681173878
STARLINK-3782           
1 52273U 22041N   25165.44892584 -.00000541  00000+0 -15889-4 0  9997
2 52273  53.2165 223.6833 0001141  87.1694 272.9429 15.08832046174006
STARLINK-3790           
1 52274U 22041P   25165.46908051 -.00000608  00000+0 -20147-4 0  9994
2 52274  53.2171 233.2076 0001063  91.9484 268.1630 15.08832934173874
STARLINK-3784           
1 52275U 22041Q   25165.87388252  .00001666  00000+0  12272-3 0  9997
2 52275  53.2180 231.3955 0001434 117.8142 242.2996 15.08841710175143
STARLINK-3778           
1 52276U 22041R   25165.46539923 -.00000677  00000+0 -24433-4 0  9992
2 52276  53.2186 233.2258 0001417 103.3897 256.7253 15.08837721173876
STARLINK-3780           
1 52278U 22041T   25165.46172113  .00000333  00000+0  38992-4 0  9990
2 52278  53.2172 233.2395 0001550 125.0606 235.0532 15.08848872173871
STARLINK-3764           
1 52280U 22041V   25165.45068422 -.00000920  00000+0 -39764-4 0  9991
2 52280  53.2165 233.2922 0001085  80.3598 279.7517 15.08831463173874
STARLINK-3779           
1 52281U 22041W   25165.46635500 -.00000059  00000+0  14352-4 0  9998
2 52281  53.2168 233.2219 0001224  92.2617 267.8515 15.08833829173870
STARLINK-3783           
1 52282U 22041X   25165.44424092 -.00000876  00000+0 -36988-4 0  9996
2 52282  53.2163 223.3198 0001190  88.3493 271.7635 15.08831496174003
STARLINK-3789           
1 52283U 22041Y   25165.45803079 -.00000240  00000+0  29964-5 0  9995
2 52283  53.2164 233.2568 0000848  81.9749 278.1340 15.08844932173875
STARLINK-3561           
1 52284U 22041Z   25165.56936126 -.00001122  00000+0 -52412-4 0  9992
2 52284  53.2173 222.7563 0001262  97.1535 262.9601 15.08836164175249
STARLINK-3775           
1 52285U 22041AA  25165.45436205  .00000494  00000+0  49157-4 0  9995
2 52285  53.2159 233.2733 0001116  92.2509 267.8611 15.08833576173871
STARLINK-3802           
1 52286U 22041AB  25165.42952441 -.00001299  00000+0 -63570-4 0  9999
2 52286  53.2155 223.3849 0001231  91.2315 268.8818 15.08841845174002
STARLINK-3822           
1 52287U 22041AC  25165.51323262  .00000055  00000+0  21553-4 0  9995
2 52287  53.2159 233.0087 0001059  77.3194 282.7916 15.08842685175117
