[
  {
    "OBJECT_NAME": "STARLINK-3781",
    "OBJECT_ID": "2022-041M",
    "EPOCH": "2025-06-14T11:27:26.065728",
    "MEAN_MOTION": 15.08837681,
    "ECCENTRICITY": 0.0001262,
    "INCLINATION": 53.2168,
    "RA_OF_ASC_NODE": 233.2112,
    "ARG_OF_PERICENTER": 88.8589,
    "MEAN_ANOMALY": 271.2548,
    "EPHEMERIS_TYPE": 0,
    "CLASSIFICATION_TYPE": "U",
    "NORAD_CAT_ID": 52272,
    "ELEMENT_SET_NO": 999,
    "REV_AT_EPOCH": 17387,
    "BSTAR": -6.532e-05,
    "MEAN_MOTION_DOT": -1.327e-05,
    "MEAN_MOTION_DDOT": 0
  },
  {
    "OBJECT_NAME": "STARLINK-3782",
    "OBJECT_ID": "2022-041N",
    "EPOCH": "2025-06-14T10:46:27.192576",
    "MEAN_MOTION": 15.08832046,
    "ECCENTRICITY": 0.0001141,
    "INCLINATION": 53.2165,
    "RA_OF_ASC_NODE": 223.6833,
    "ARG_OF_PERICENTER": 87.1694,
    "MEAN_ANOMALY": 272.9429,
    "EPHEMERIS_TYPE": 0,
    "CLASSIFICATION_TYPE": "U",
    "NORAD_CAT_ID": 52273,
    "ELEMENT_SET_NO": 999,
    "REV_AT_EPOCH": 17400,
    "BSTAR": -1.5889e-05,
    "MEAN_MOTION_DOT": -5.41e-06,
    "MEAN_MOTION_DDOT": 0
  },
  {
    "OBJECT_NAME": "STARLINK-3790",
    "OBJECT_ID": "2022-041P",
    "EPOCH": "2025-06-14T11:15:28.556064",
    "MEAN_MOTION": 15.08832934,
    "ECCENTRICITY": 0.0001063,
    "INCLINATION": 53.2171,
    "RA_OF_ASC_NODE": 233.2076,
    "ARG_OF_PERICENTER": 91.9484,
    "MEAN_ANOMALY": 268.163,
    "EPHEMERIS_TYPE": 0,
    "CLASSIFICATION_TYPE": "U",
    "NORAD_CAT_ID": 52274,
    "ELEMENT_SET_NO": 999,
    "REV_AT_EPOCH": 17387,
    "BSTAR": -2.0147e-05,
    "MEAN_MOTION_DOT": -6.08e-06,
    "MEAN_MOTION_DDOT": 0
  },
  {
    "OBJECT_NAME": "STARLINK-3784",
    "OBJECT_ID": "2022-041Q",
    "EPOCH": "2025-06-14T20:58:23.449728",
    "MEAN_MOTION": 15.0884171,
    "ECCENTRICITY": 0.0001434,
    "INCLINATION": 53.218,
    "RA_OF_ASC_NODE": 231.3955,
    "ARG_OF_PERICENTER": 117.8142,
    "MEAN_ANOMALY": 242.2996,
    "EPHEMERIS_TYPE": 0,
    "CLASSIFICATION_TYPE": "U",
    "NORAD_CAT_ID": 52275,
    "ELEMENT_SET_NO": 999,
    "REV_AT_EPOCH": 17514,
    "BSTAR": 0.00012272,
    "MEAN_MOTION_DOT": 1.666e-05,
    "MEAN_MOTION_DDOT": 0
  },
  {
    "OBJECT_NAME": "STARLINK-3778",
    "OBJECT_ID": "2022-041R",
    "EPOCH": "2025-06-14T11:10:10.493472",
    "MEAN_MOTION": 15.08837721,
    "ECCENTRICITY": 0.0001417,
    "INCLINATION": 53.2186,
    "RA_OF_ASC_NODE": 233.2258,
    "ARG_OF_PERICENTER": 103.3897,
    "MEAN_ANOMALY": 256.7253,
    "EPHEMERIS_TYPE": 0,
    "CLASSIFICATION_TYPE": "U",
    "NORAD_CAT_ID": 52276,
    "ELEMENT_SET_NO": 999,
    "REV_AT_EPOCH": 17387,
    "BSTAR": -2.4433e-05,
    "MEAN_MOTION_DOT": -6.77e-06,
    "MEAN_MOTION_DDOT": 0
  },
  {
    "OBJECT_NAME": "STARLINK-3780",
    "OBJECT_ID": "2022-041T",
    "EPOCH": "2025-06-14T11:04:52.705632",
    "MEAN_MOTION": 15.08848872,
    "ECCENTRICITY": 0.000155,
    "INCLINATION": 53.2172,
    "RA_OF_ASC_NODE": 233.2395,
    "ARG_OF_PERICENTER": 125.0606,
    "MEAN_ANOMALY": 235.0532,
    "EPHEMERIS_TYPE": 0,
    "CLASSIFICATION_TYPE": "U",
    "NORAD_CAT_ID": 52278,
    "ELEMENT_SET_NO": 999,
    "REV_AT_EPOCH": 17387,
    "BSTAR": 3.8992e-05,
    "MEAN_MOTION_DOT": 3.33e-06,
    "MEAN_MOTION_DDOT": 0
  },
  {
    "OBJECT_NAME": "STARLINK-3764",
    "OBJECT_ID": "2022-041V",
    "EPOCH": "2025-06-14T10:48:59.116608",
    "MEAN_MOTION": 15.08831463,
    "ECCENTRICITY": 0.0001085,
    "INCLINATION": 53.2165,
    "RA_OF_ASC_NODE": 233.2922,
    "ARG_OF_PERICENTER": 80.3598,
    "MEAN_ANOMALY": 279.7517,
    "EPHEMERIS_TYPE": 0,
    "CLASSIFICATION_TYPE": "U",
    "NORAD_CAT_ID": 52280,
    "ELEMENT_SET_NO": 999,
    "REV_AT_EPOCH": 17387,
    "BSTAR": -3.9764e-05,
    "MEAN_MOTION_DOT": -9.2e-06,
    "MEAN_MOTION_DDOT": 0
  },
  {
    "OBJECT_NAME": "STARLINK-3779",
    "OBJECT_ID": "2022-041W",
    "EPOCH": "2025-06-14T11:11:33.072000",
    "MEAN_MOTION": 15.08833829,
    "ECCENTRICITY": 0.0001224,
    "INCLINATION": 53.2168,
    "RA_OF_ASC_NODE": 233.2219,
    "ARG_OF_PERICENTER": 92.2617,
    "MEAN_ANOMALY": 267.8515,
    "EPHEMERIS_TYPE": 0,
    "CLASSIFICATION_TYPE": "U",
    "NORAD_CAT_ID": 52281,
    "ELEMENT_SET_NO": 999,
    "REV_AT_EPOCH": 17387,
    "BSTAR": 1.4352e-05,
    "MEAN_MOTION_DOT": -5.9e-07,
    "MEAN_MOTION_DDOT": 0
  },
  {
    "OBJECT_NAME": "STARLINK-3783",
    "OBJECT_ID": "2022-041X",
    "EPOCH": "2025-06-14T10:39:42.415488",
    "MEAN_MOTION": 15.08831496,
    "ECCENTRICITY": 0.000119,
    "INCLINATION": 53.2163,
    "RA_OF_ASC_NODE": 223.3198,
    "ARG_OF_PERICENTER": 88.3493,
    "MEAN_ANOMALY": 271.7635,
    "EPHEMERIS_TYPE": 0,
    "CLASSIFICATION_TYPE": "U",
    "NORAD_CAT_ID": 52282,
    "ELEMENT_SET_NO": 999,
    "REV_AT_EPOCH": 17400,
    "BSTAR": -3.6988e-05,
    "MEAN_MOTION_DOT": -8.76e-06,
    "MEAN_MOTION_DDOT": 0
  },
  {
    "OBJECT_NAME": "STARLINK-3789",
    "OBJECT_ID": "2022-041Y",
    "EPOCH": "2025-06-14T10:59:33.860256",
    "MEAN_MOTION": 15.08844932,
    "ECCENTRICITY": 8.48e-05,
    "INCLINATION": 53.2164,
    "RA_OF_ASC_NODE": 233.2568,
    "ARG_OF_PERICENTER": 81.9749,
    "MEAN_ANOMALY": 278.134,
    "EPHEMERIS_TYPE": 0,
    "CLASSIFICATION_TYPE": "U",
    "NORAD_CAT_ID": 52283,
    "ELEMENT_SET_NO": 999,
    "REV_AT_EPOCH": 17387,
    "BSTAR": 2.9964e-06,
    "MEAN_MOTION_DOT": -2.4e-06,
    "MEAN_MOTION_DDOT": 0
  },
  {
    "OBJECT_NAME": "STARLINK-3561",
    "OBJECT_ID": "2022-041Z",
    "EPOCH": "2025-06-14T13:39:52.812864",
    "MEAN_MOTION": 15.08836164,
    "ECCENTRICITY": 0.0001262,
    "INCLINATION": 53.2173,
    "RA_OF_ASC_NODE": 222.7563,
    "ARG_OF_PERICENTER": 97.1535,
    "MEAN_ANOMALY": 262.9601,
    "EPHEMERIS_TYPE": 0,
    "CLASSIFICATION_TYPE": "U",
    "NORAD_CAT_ID": 52284,
    "ELEMENT_SET_NO": 999,
    "REV_AT_EPOCH": 17524,
    "BSTAR": -5.2412e-05,
    "MEAN_MOTION_DOT": -1.122e-05,
    "MEAN_MOTION_DDOT": 0
  },
  {
    "OBJECT_NAME": "STARLINK-3775",
    "OBJECT_ID": "2022-041AA",
    "EPOCH": "2025-06-14T10:54:16.881120",
    "MEAN_MOTION": 15.08833576,
    "ECCENTRICITY": 0.0001116,
    "INCLINATION": 53.2159,
    "RA_OF_ASC_NODE": 233.2733,
    "ARG_OF_PERICENTER": 92.2509,
    "MEAN_ANOMALY": 267.8611,
    "EPHEMERIS_TYPE": 0,
    "CLASSIFICATION_TYPE": "U",
    "NORAD_CAT_ID": 52285,
    "ELEMENT_SET_NO": 999,
    "REV_AT_EPOCH": 17387,
    "BSTAR": 4.9157e-05,
    "MEAN_MOTION_DOT": 4.94e-06,
    "MEAN_MOTION_DDOT": 0
  },
  {
    "OBJECT_NAME": "STARLINK-3802",
    "OBJECT_ID": "2022-041AB",
    "EPOCH": "2025-06-14T10:18:30.909024",
    "MEAN_MOTION": 15.08841845,
    "ECCENTRICITY": 0.0001231,
    "INCLINATION": 53.2155,
    "RA_OF_ASC_NODE": 223.3849,
    "ARG_OF_PERICENTER": 91.2315,
    "MEAN_ANOMALY": 268.8818,
    "EPHEMERIS_TYPE": 0,
    "CLASSIFICATION_TYPE": "U",
    "NORAD_CAT_ID": 52286,
    "ELEMENT_SET_NO": 999,
    "REV_AT_EPOCH": 17400,
    "BSTAR": -6.357e-05,
    "MEAN_MOTION_DOT": -1.299e-05,
    "MEAN_MOTION_DDOT": 0
  },
  {
    "OBJECT_NAME": "STARLINK-3822",
    "OBJECT_ID": "2022-041AC",
    "EPOCH": "2025-06-14T12:19:03.298368",
    "MEAN_MOTION": 15.08842685,
    "ECCENTRICITY": 0.0001059,
    "INCLINATION": 53.2159,
    "RA_OF_ASC_NODE": 233.0087,
    "ARG_OF_PERICENTER": 77.3194,
    "MEAN_ANOMALY": 282.7916,
    "EPHEMERIS_TYPE": 0,
    "CLASSIFICATION_TYPE": "U",
    "NORAD_CAT_ID": 52287,
    "ELEMENT_SET_NO": 999,
    "REV_AT_EPOCH": 17511,
    "BSTAR": 2.1553e-05,
    "MEAN_MOTION_DOT": 5.5e-07,
    "MEAN_MOTION_DDOT": 0
  }
]